KUIPER-00104            
1 65142U 25171L   25350.91670139 -.00000617  00000+0 -56163-4 0  9995
2 65142  51.8994 163.0741 0002469 343.0351 142.5746 14.77178093  5414
KUIPER-00105            
1 65143U 25171M   25350.81022522  .00009356  00000+0  12536-2 0  9993
2 65143  51.8977 172.1432 0012583 186.6604 173.4193 14.79924809 20517
KUIPER-00106            
1 65144U 25171N   25350.92706253  .00004317  00000+0  39754-3 0  9990
2 65144  51.8918 170.9037 0009452 181.7822 178.3116 14.96542549 20547
KUIPER-00107            
1 65145U 25171P   25350.91670139  .00035999  00000+0  32398-2 0  9999
2 65145  51.8914 154.9165 0006535 246.9067 182.2938 14.95276187  4079
KUIPER-00108            
1 65146U 25171Q   25350.91678462  .00002317  00000+0  33256-3 0  9990
2 65146  51.9004 166.6109 0008235 194.7403 165.3320 14.79980093 20606
KUIPER-00109            
1 65147U 25171R   25350.68590914  .00002634  00000+0  37408-3 0  9995
2 65147  51.9004 162.5753 0011914 209.9100 150.1183 14.79963138 20631
KUIPER-00110            
1 65148U 25171S   25350.91670139  .00039463  00000+0  51755-2 0  9990
2 65148  51.8966 174.1662 0002633 223.9307 176.0855 14.79929046  1934
KUIPER-00111            
1 65149U 25171T   25350.80210543  .00007398  00000+0  99805-3 0  9999
2 65149  51.8960 179.5973 0008642 195.9728 164.0963 14.79929080 20402
